{
  "type": "FeatureCollection",
  "features": [
    {
      "type": "Feature",
      "properties": {
        "norad_id": 30264,
        "name": "FENGYUN 1C DEB",
        "group": "fengyun-1c-debris",
        "lat": 71.47906842535272,
        "lon": 9.40107093382246,
        "alt_km": 913.9996095148163,
        "timestamp": "2025-12-08T08:59:01.040790+00:00",
        "meta_object_name": "FENGYUN 1C DEB",
        "meta_object_id": "1999-025XZ",
        "meta_epoch": "2025-12-07T10:31:45.516864",
        "meta_mean_motion": 14.07607098,
        "meta_eccentricity": 0.01068064,
        "meta_inclination": 98.97,
        "meta_ra_of_asc_node": 36.6026,
        "meta_arg_of_pericenter": 302.3311,
        "meta_mean_anomaly": 72.1278,
        "meta_ephemeris_type": 0,
        "meta_classification_type": "U",
        "meta_norad_cat_id": 30264,
        "meta_element_set_no": 999,
        "meta_rev_at_epoch": 96483,
        "meta_bstar": 0.0020114324,
        "meta_mean_motion_dot": 3.533e-05,
        "meta_mean_motion_ddot": 0,
        "tle_line1": "1 30264U 99025XZ  25341.43872126  .00003533  00000+0  20114-2 0  9991",
        "tle_line2": "2 30264  98.9700  36.6026 0106806 302.3311  72.1278 14.07607098964836"
      },
      "geometry": {
        "type": "Point",
        "coordinates": [
          9.40107093382246,
          71.47906842535272
        ]
      }
    },
    {
      "type": "Feature",
      "properties": {
        "norad_id": 30265,
        "name": "FENGYUN 1C DEB",
        "group": "fengyun-1c-debris",
        "lat": 13.518799670490884,
        "lon": 89.21212500743304,
        "alt_km": 679.5309365409739,
        "timestamp": "2025-12-08T08:59:01.040800+00:00",
        "meta_object_name": "FENGYUN 1C DEB",
        "meta_object_id": "1999-025YA",
        "meta_epoch": "2025-12-07T13:27:33.255648",
        "meta_mean_motion": 14.58454241,
        "meta_eccentricity": 0.00284212,
        "meta_inclination": 98.6628,
        "meta_ra_of_asc_node": 90.4653,
        "meta_arg_of_pericenter": 29.3388,
        "meta_mean_anomaly": 35.6689,
        "meta_ephemeris_type": 0,
        "meta_classification_type": "U",
        "meta_norad_cat_id": 30265,
        "meta_element_set_no": 999,
        "meta_rev_at_epoch": 98326,
        "meta_bstar": 0.0037464511,
        "meta_mean_motion_dot": 0.0001747,
        "meta_mean_motion_ddot": 0,
        "tle_line1": "1 30265U 99025YA  25341.56080157  .00017470  00000+0  37465-2 0  9993",
        "tle_line2": "2 30265  98.6628  90.4653 0028421  29.3388  35.6689 14.58454241983267"
      },
      "geometry": {
        "type": "Point",
        "coordinates": [
          89.21212500743304,
          13.518799670490884
        ]
      }
    },
    {
      "type": "Feature",
      "properties": {
        "norad_id": 30266,
        "name": "FENGYUN 1C DEB",
        "group": "fengyun-1c-debris",
        "lat": -11.261000730037917,
        "lon": 48.34440853995897,
        "alt_km": 845.5453533393666,
        "timestamp": "2025-12-08T08:59:01.040810+00:00",
        "meta_object_name": "FENGYUN 1C DEB",
        "meta_object_id": "1999-025YB",
        "meta_epoch": "2025-12-07T16:46:45.938784",
        "meta_mean_motion": 14.15048264,
        "meta_eccentricity": 0.008307,
        "meta_inclination": 99.0425,
        "meta_ra_of_asc_node": 45.8433,
        "meta_arg_of_pericenter": 80.3092,
        "meta_mean_anomaly": 71.8005,
        "meta_ephemeris_type": 0,
        "meta_classification_type": "U",
        "meta_norad_cat_id": 30266,
        "meta_element_set_no": 999,
        "meta_rev_at_epoch": 96718,
        "meta_bstar": 0.0021227128,
        "meta_mean_motion_dot": 4.209e-05,
        "meta_mean_motion_ddot": 0,
        "tle_line1": "1 30266U 99025YB  25341.69914281  .00004209  00000+0  21227-2 0  9997",
        "tle_line2": "2 30266  99.0425  45.8433 0083070  80.3092  71.8005 14.15048264967182"
      },
      "geometry": {
        "type": "Point",
        "coordinates": [
          48.34440853995897,
          -11.261000730037917
        ]
      }
    },
    {
      "type": "Feature",
      "properties": {
        "norad_id": 30267,
        "name": "FENGYUN 1C DEB",
        "group": "fengyun-1c-debris",
        "lat": 49.526273341984265,
        "lon": -115.96898436490827,
        "alt_km": 833.4460014245296,
        "timestamp": "2025-12-08T08:59:01.040820+00:00",
        "meta_object_name": "FENGYUN 1C DEB",
        "meta_object_id": "1999-025YC",
        "meta_epoch": "2025-12-07T15:30:09.583200",
        "meta_mean_motion": 14.23553718,
        "meta_eccentricity": 0.0058689,
        "meta_inclination": 98.8496,
        "meta_ra_of_asc_node": 52.7784,
        "meta_arg_of_pericenter": 257.7085,
        "meta_mean_anomaly": 101.7518,
        "meta_ephemeris_type": 0,
        "meta_classification_type": "U",
        "meta_norad_cat_id": 30267,
        "meta_element_set_no": 999,
        "meta_rev_at_epoch": 97222,
        "meta_bstar": 0.002597541,
        "meta_mean_motion_dot": 5.977e-05,
        "meta_mean_motion_ddot": 0,
        "tle_line1": "1 30267U 99025YC  25341.64594425  .00005977  00000+0  25975-2 0  9994",
        "tle_line2": "2 30267  98.8496  52.7784 0058689 257.7085 101.7518 14.23553718972221"
      },
      "geometry": {
        "type": "Point",
        "coordinates": [
          -115.96898436490827,
          49.526273341984265
        ]
      }
    },
    {
      "type": "Feature",
      "properties": {
        "norad_id": 30270,
        "name": "FENGYUN 1C DEB",
        "group": "fengyun-1c-debris",
        "lat": -46.78197089324536,
        "lon": 5.611812839734627,
        "alt_km": 865.8528668720128,
        "timestamp": "2025-12-08T08:59:01.040830+00:00",
        "meta_object_name": "FENGYUN 1C DEB",
        "meta_object_id": "1999-025YF",
        "meta_epoch": "2025-12-07T23:16:34.416192",
        "meta_mean_motion": 14.11267634,
        "meta_eccentricity": 0.00071906,
        "meta_inclination": 98.7024,
        "meta_ra_of_asc_node": 355.8389,
        "meta_arg_of_pericenter": 172.1492,
        "meta_mean_anomaly": 246.5753,
        "meta_ephemeris_type": 0,
        "meta_classification_type": "U",
        "meta_norad_cat_id": 30270,
        "meta_element_set_no": 999,
        "meta_rev_at_epoch": 97294,
        "meta_bstar": 0.00019228073,
        "meta_mean_motion_dot": 3.05e-06,
        "meta_mean_motion_ddot": 0,
        "tle_line1": "1 30270U 99025YF  25341.96984278  .00000305  00000+0  19228-3 0  9997",
        "tle_line2": "2 30270  98.7024 355.8389 0007190 172.1492 246.5753 14.11267634972946"
      },
      "geometry": {
        "type": "Point",
        "coordinates": [
          5.611812839734627,
          -46.78197089324536
        ]
      }
    },
    {
      "type": "Feature",
      "properties": {
        "norad_id": 30272,
        "name": "FENGYUN 1C DEB",
        "group": "fengyun-1c-debris",
        "lat": 48.626932363002275,
        "lon": -119.6687932049445,
        "alt_km": 803.1529877173089,
        "timestamp": "2025-12-08T08:59:01.040841+00:00",
        "meta_object_name": "FENGYUN 1C DEB",
        "meta_object_id": "1999-025YH",
        "meta_epoch": "2025-12-07T22:11:14.412768",
        "meta_mean_motion": 14.14678349,
        "meta_eccentricity": 0.00511999,
        "meta_inclination": 98.9011,
        "meta_ra_of_asc_node": 49.6338,
        "meta_arg_of_pericenter": 117.294,
        "meta_mean_anomaly": 243.346,
        "meta_ephemeris_type": 0,
        "meta_classification_type": "U",
        "meta_norad_cat_id": 30272,
        "meta_element_set_no": 999,
        "meta_rev_at_epoch": 96788,
        "meta_bstar": 0.0016965161,
        "meta_mean_motion_dot": 3.262e-05,
        "meta_mean_motion_ddot": 0,
        "tle_line1": "1 30272U 99025YH  25341.92447237  .00003262  00000+0  16965-2 0  9993",
        "tle_line2": "2 30272  98.9011  49.6338 0051199 117.2940 243.3460 14.14678349967883"
      },
      "geometry": {
        "type": "Point",
        "coordinates": [
          -119.6687932049445,
          48.626932363002275
        ]
      }
    },
    {
      "type": "Feature",
      "properties": {
        "norad_id": 30273,
        "name": "FENGYUN 1C DEB",
        "group": "fengyun-1c-debris",
        "lat": -61.752256911245944,
        "lon": 13.904007918769716,
        "alt_km": 855.7555192273685,
        "timestamp": "2025-12-08T08:59:01.040851+00:00",
        "meta_object_name": "FENGYUN 1C DEB",
        "meta_object_id": "1999-025YJ",
        "meta_epoch": "2025-12-07T15:02:53.968128",
        "meta_mean_motion": 14.02649147,
        "meta_eccentricity": 0.00605009,
        "meta_inclination": 98.8409,
        "meta_ra_of_asc_node": 356.3398,
        "meta_arg_of_pericenter": 263.8861,
        "meta_mean_anomaly": 221.2507,
        "meta_ephemeris_type": 0,
        "meta_classification_type": "U",
        "meta_norad_cat_id": 30273,
        "meta_element_set_no": 999,
        "meta_rev_at_epoch": 96457,
        "meta_bstar": 0.00090683929,
        "meta_mean_motion_dot": 1.378e-05,
        "meta_mean_motion_ddot": 0,
        "tle_line1": "1 30273U 99025YJ  25341.62701352  .00001378  00000+0  90684-3 0  9999",
        "tle_line2": "2 30273  98.8409 356.3398 0060500 263.8861 221.2507 14.02649147964575"
      },
      "geometry": {
        "type": "Point",
        "coordinates": [
          13.904007918769716,
          -61.752256911245944
        ]
      }
    }
  ]
}